{
  "norad_id": 52501,
  "name": "STARLINK-3907",
  "history": [
    {
      "epoch": "2026-03-28T22:25:32.439936",
      "apogee_km": 540.7071395537723,
      "perigee_km": 538.7676442892525,
      "latitude_deg": 32.77207692029533,
      "longitude_deg": -120.1972889599856,
      "semi_major_axis_km": 6917.874391921512,
      "eccentricity": 0.00014018,
      "inclination_deg": 53.2185,
      "raan_deg": 322.5283,
      "arg_perigee_deg": 95.0509,
      "mean_anomaly_deg": 265.0643,
      "mean_motion_rev_day": 15.08841962
    },
    {
      "epoch": "2026-03-29T01:36:18.641952",
      "apogee_km": 540.6978948269871,
      "perigee_km": 538.7691925194122,
      "latitude_deg": 18.673822175947798,
      "longitude_deg": -107.47928671981208,
      "semi_major_axis_km": 6917.8705436732,
      "eccentricity": 0.0001394,
      "inclination_deg": 53.2184,
      "raan_deg": 321.9335,
      "arg_perigee_deg": 94.7119,
      "mean_anomaly_deg": 265.4032,
      "mean_motion_rev_day": 15.08843221
    }
  ]
}